EUTELSAT 7A             
1 28187U 04008A   25284.10515175  .00000100  00000+0  00000+0 0  9993
2 28187   5.1944  74.9633 0001315 161.6092  42.0533  1.00269368 78858
EUTELSAT 174A           
1 28924U 05052A   25284.16729204  .00000006  00000+0  00000+0 0  9993
2 28924   3.5851  79.5961 0006439 125.1950  49.4614  1.00272224 49833
EUTELSAT HOTBIRD 13B    
1 29270U 06032A   25284.21071223  .00000151  00000+0  00000+0 0  9995
2 29270   1.0140  84.9160 0003898 114.5891 289.5157  1.00273546 44815
EUTELSAT HOTBIRD 13C    
1 33459U 08065A   25284.20169885 -.00000104  00000+0  00000+0 0  9997
2 33459   2.3062  82.1165 0005799 142.0543 216.0078  1.00271399 44847
EUTELSAT 36B            
1 36101U 09065A   25284.21417892  .00000107  00000+0  00000+0 0  9992
2 36101   0.0543  13.0716 0006110 192.3688 302.2283  1.00269510 58218
EUTELSAT KA-SAT 9A      
1 37258U 10069A   25284.05114383  .00000057  00000+0  00000+0 0  9997
2 37258   0.0569 325.0582 0002580 204.9685 237.2937  1.00269274 41505
EUTELSAT 7 WEST A       
1 37816U 11051A   25284.20265220 -.00000065  00000+0  00000+0 0  9993
2 37816   0.0715  27.5933 0006594 173.8054 244.3125  1.00271705 51393
EUTELSAT 16A            
1 37836U 11057A   25284.20733222  .00000099  00000+0  00000+0 0  9999
2 37836   0.0643 358.5355 0005363 201.9914 270.1854  1.00270030  4834
